start=new Date('2023-06-11T00:00:00.000Z').valueOf();
sats=[{"SEMIMAJOR_AXIS":"6917.875","ELEMENT_SET_NO":"999","APOAPSIS":"540.375","COUNTRY_CODE":"US","MEAN_MOTION_DOT":"-0.00000687","TLE_LINE1":"1 53009U 22076Z   23161.69786264 -.00000687  00000-0 -25096-4 0  9994","RA_OF_ASC_NODE":"266.7262","BSTAR":"-0.00002509600000","MEAN_MOTION_DDOT":"0.0000000000000","OBJECT_NAME":"STARLINK-4277","MEAN_MOTION":"15.08841851","PERIAPSIS":"539.105","RCS_SIZE":"LARGE","OBJECT_ID":"2022-076Z","INCLINATION":"53.2168","TLE_LINE2":"2 53009  53.2168 266.7262 0000918  86.3038 273.8059 15.08841851 51563","EPOCH":"2023-06-10T16:44:55.332096","CLASSIFICATION_TYPE":"U","TIME_SYSTEM":"UTC","REV_AT_EPOCH":"5156","GP_ID":"233655018","CENTER_NAME":"EARTH","DECAY_DATE":null,"NORAD_CAT_ID":"53009","REF_FRAME":"TEME","PERIOD":"95.437","ECCENTRICITY":"0.00009180","LAUNCH_DATE":"2022-07-07","MEAN_ELEMENT_THEORY":"SGP4","OBJECT_TYPE":"PAYLOAD","FILE":"3929969","SITE":"AFETR","EPHEMERIS_TYPE":"0","ARG_OF_PERICENTER":"86.3038","MEAN_ANOMALY":"273.8059"},{"CLASSIFICATION_TYPE":"U","EPOCH":"2023-06-10T13:59:19.440096","TLE_LINE2":"2 53010  53.2159 277.2421 0001043  88.9986 271.1126 15.08841191 51416","INCLINATION":"53.2159","OBJECT_ID":"2022-076AA","RCS_SIZE":"LARGE","PERIAPSIS":"539.020","MEAN_MOTION":"15.08841191","OBJECT_NAME":"STARLINK-4263","MEAN_MOTION_DDOT":"0.0000000000000","BSTAR":"0.00012929000000","RA_OF_ASC_NODE":"277.2421","TLE_LINE1":"1 53010U 22076AA  23161.58286389  .00001771  00000-0  12929-3 0  9990","MEAN_MOTION_DOT":"0.00001771","COUNTRY_CODE":"US","APOAPSIS":"540.463","ELEMENT_SET_NO":"999","SEMIMAJOR_AXIS":"6917.877","MEAN_ANOMALY":"271.1126","ARG_OF_PERICENTER":"88.9986","EPHEMERIS_TYPE":"0","SITE":"AFETR","FILE":"3929709","OBJECT_TYPE":"PAYLOAD","MEAN_ELEMENT_THEORY":"SGP4","LAUNCH_DATE":"2022-07-07","ECCENTRICITY":"0.00010430","PERIOD":"95.437","REF_FRAME":"TEME","NORAD_CAT_ID":"53010","DECAY_DATE":null,"CENTER_NAME":"EARTH","GP_ID":"233620951","REV_AT_EPOCH":"5141","TIME_SYSTEM":"UTC"},{"TLE_LINE1":"1 53011U 22076AB  23161.56169994  .00000511  00000-0  50171-4 0  9994","RA_OF_ASC_NODE":"267.3365","APOAPSIS":"540.313","MEAN_MOTION_DOT":"0.00000511","COUNTRY_CODE":"US","SEMIMAJOR_AXIS":"6917.880","ELEMENT_SET_NO":"999","TLE_LINE2":"2 53011  53.2167 267.3365 0000821  96.6648 263.4437 15.08840125 51546","INCLINATION":"53.2167","EPOCH":"2023-06-10T13:28:50.874816","CLASSIFICATION_TYPE":"U","OBJECT_ID":"2022-076AB","OBJECT_NAME":"STARLINK-4265","MEAN_MOTION":"15.08840125","PERIAPSIS":"539.177","RCS_SIZE":"LARGE","BSTAR":"0.00005017100000","MEAN_MOTION_DDOT":"0.0000000000000","NORAD_CAT_ID":"53011","REF_FRAME":"TEME","GP_ID":"233622202","CENTER_NAME":"EARTH","DECAY_DATE":null,"TIME_SYSTEM":"UTC","REV_AT_EPOCH":"5154","ARG_OF_PERICENTER":"96.6648","MEAN_ANOMALY":"263.4437","EPHEMERIS_TYPE":"0","MEAN_ELEMENT_THEORY":"SGP4","LAUNCH_DATE":"2022-07-07","OBJECT_TYPE":"PAYLOAD","FILE":"3929709","SITE":"AFETR","PERIOD":"95.438","ECCENTRICITY":"0.00008210"},{"OBJECT_ID":"2022-076AC","CLASSIFICATION_TYPE":"U","EPOCH":"2023-06-10T15:24:06.375744","TLE_LINE2":"2 53012  53.2166 276.9764 0001247  99.3046 260.8087 15.08845289 51425","INCLINATION":"53.2166","MEAN_MOTION_DDOT":"0.0000000000000","BSTAR":"0.00001050500000","RCS_SIZE":"LARGE","MEAN_MOTION":"15.08845289","PERIAPSIS":"538.867","OBJECT_NAME":"STARLINK-4271","RA_OF_ASC_NODE":"276.9764","TLE_LINE1":"1 53012U 22076AC  23161.64174046 -.00000121  00000-0  10505-4 0  9993","ELEMENT_SET_NO":"999","SEMIMAJOR_AXIS":"6917.864","COUNTRY_CODE":"US","MEAN_MOTION_DOT":"-0.00000121","APOAPSIS":"540.592","EPHEMERIS_TYPE":"0","MEAN_ANOMALY":"260.8087","ARG_OF_PERICENTER":"99.3046","ECCENTRICITY":"0.00012470","PERIOD":"95.437","SITE":"AFETR","FILE":"3929969","OBJECT_TYPE":"PAYLOAD","MEAN_ELEMENT_THEORY":"SGP4","LAUNCH_DATE":"2022-07-07","REF_FRAME":"TEME","NORAD_CAT_ID":"53012","REV_AT_EPOCH":"5142","TIME_SYSTEM":"UTC","DECAY_DATE":null,"CENTER_NAME":"EARTH","GP_ID":"233654773"},{"NORAD_CAT_ID":"53013","REF_FRAME":"TEME","DECAY_DATE":null,"GP_ID":"233655518","CENTER_NAME":"EARTH","TIME_SYSTEM":"UTC","REV_AT_EPOCH":"5155","MEAN_ANOMALY":"284.3940","ARG_OF_PERICENTER":"75.7166","EPHEMERIS_TYPE":"0","FILE":"3929969","SITE":"AFETR","LAUNCH_DATE":"2022-07-07","MEAN_ELEMENT_THEORY":"SGP4","OBJECT_TYPE":"PAYLOAD","PERIOD":"95.437","ECCENTRICITY":"0.00010210","TLE_LINE1":"1 53013U 22076AD  23161.62058234  .00000326  00000-0  38543-4 0  9990","RA_OF_ASC_NODE":"267.0708","COUNTRY_CODE":"US","MEAN_MOTION_DOT":"0.00000326","APOAPSIS":"540.437","ELEMENT_SET_NO":"999","SEMIMAJOR_AXIS":"6917.865","CLASSIFICATION_TYPE":"U","TLE_LINE2":"2 53013  53.2167 267.0708 0001021  75.7166 284.3940 15.08844947 51550","INCLINATION":"53.2167","EPOCH":"2023-06-10T14:53:38.314176","OBJECT_ID":"2022-076AD","RCS_SIZE":"LARGE","OBJECT_NAME":"STARLINK-4177","PERIAPSIS":"539.024","MEAN_MOTION":"15.08844947","MEAN_MOTION_DDOT":"0.0000000000000","BSTAR":"0.00003854300000"},{"DECAY_DATE":null,"CENTER_NAME":"EARTH","GP_ID":"233621451","TIME_SYSTEM":"UTC","REV_AT_EPOCH":"5154","NORAD_CAT_ID":"53014","REF_FRAME":"TEME","FILE":"3929709","SITE":"AFETR","MEAN_ELEMENT_THEORY":"SGP4","LAUNCH_DATE":"2022-07-07","OBJECT_TYPE":"PAYLOAD","PERIOD":"95.437","ECCENTRICITY":"0.00007120","MEAN_ANOMALY":"260.8673","ARG_OF_PERICENTER":"99.2400","EPHEMERIS_TYPE":"0","COUNTRY_CODE":"US","MEAN_MOTION_DOT":"0.00001531","APOAPSIS":"540.234","ELEMENT_SET_NO":"999","SEMIMAJOR_AXIS":"6917.877","TLE_LINE1":"1 53014U 22076AE  23161.56905795  .00001531  00000-0  11421-3 0  9991","RA_OF_ASC_NODE":"267.3056","RCS_SIZE":"LARGE","OBJECT_NAME":"STARLINK-4183","MEAN_MOTION":"15.08841221","PERIAPSIS":"539.249","MEAN_MOTION_DDOT":"0.0000000000000","BSTAR":"0.00011421000000","CLASSIFICATION_TYPE":"U","TLE_LINE2":"2 53014  53.2163 267.3056 0000712  99.2400 260.8673 15.08841221 51547","INCLINATION":"53.2163","EPOCH":"2023-06-10T13:39:26.606880","OBJECT_ID":"2022-076AE"},{"ARG_OF_PERICENTER":"82.7228","MEAN_ANOMALY":"277.3863","EPHEMERIS_TYPE":"0","OBJECT_TYPE":"PAYLOAD","MEAN_ELEMENT_THEORY":"SGP4","LAUNCH_DATE":"2022-07-07","SITE":"AFETR","FILE":"3929969","ECCENTRICITY":"0.00008630","PERIOD":"95.437","REF_FRAME":"TEME","NORAD_CAT_ID":"53015","CENTER_NAME":"EARTH","GP_ID":"233654022","DECAY_DATE":null,"REV_AT_EPOCH":"5155","TIME_SYSTEM":"UTC","EPOCH":"2023-06-10T14:43:02.117280","INCLINATION":"53.2168","TLE_LINE2":"2 53015  53.2168 267.1030 0000863  82.7228 277.3863 15.08848177 51557","CLASSIFICATION_TYPE":"U","OBJECT_ID":"2022-076AF","PERIAPSIS":"539.123","MEAN_MOTION":"15.08848177","OBJECT_NAME":"STARLINK-4262","RCS_SIZE":"LARGE","BSTAR":"0.00007232500000","MEAN_MOTION_DDOT":"0.0000000000000","RA_OF_ASC_NODE":"267.1030","TLE_LINE1":"1 53015U 22076AF  23161.61321895  .00000864  00000-0  72325-4 0  9990","APOAPSIS":"540.317","COUNTRY_CODE":"US","MEAN_MOTION_DOT":"0.00000864","SEMIMAJOR_AXIS":"6917.855","ELEMENT_SET_NO":"999"},{"PERIOD":"95.437","ECCENTRICITY":"0.00012190","LAUNCH_DATE":"2022-07-07","MEAN_ELEMENT_THEORY":"SGP4","OBJECT_TYPE":"PAYLOAD","FILE":"3929709","SITE":"AFETR","EPHEMERIS_TYPE":"0","ARG_OF_PERICENTER":"84.2119","MEAN_ANOMALY":"275.9012","TIME_SYSTEM":"UTC","REV_AT_EPOCH":"5154","CENTER_NAME":"EARTH","GP_ID":"233621949","DECAY_DATE":null,"NORAD_CAT_ID":"53016","REF_FRAME":"TEME","BSTAR":"0.00019546000000","MEAN_MOTION_DDOT":"0.0000000000000","OBJECT_NAME":"STARLINK-4283","PERIAPSIS":"538.884","MEAN_MOTION":"15.08845900","RCS_SIZE":"LARGE","OBJECT_ID":"2022-076AG","INCLINATION":"53.2162","TLE_LINE2":"2 53016  53.2162 267.3538 0001219  84.2119 275.9012 15.08845900 51549","EPOCH":"2023-06-10T13:23:33.125856","CLASSIFICATION_TYPE":"U","SEMIMAJOR_AXIS":"6917.862","ELEMENT_SET_NO":"999","APOAPSIS":"540.571","MEAN_MOTION_DOT":"0.00002825","COUNTRY_CODE":"US","TLE_LINE1":"1 53016U 22076AG  23161.55802229  .00002825  00000-0  19546-3 0  9993","RA_OF_ASC_NODE":"267.3538"},{"OBJECT_ID":"2022-076AH","CLASSIFICATION_TYPE":"U","INCLINATION":"53.2169","TLE_LINE2":"2 53017  53.2169 266.8233 0000991  90.8181 269.2924 15.08843641 51572","EPOCH":"2023-06-10T16:13:07.516416","MEAN_MOTION_DDOT":"0.0000000000000","BSTAR":"0.00001841700000","RCS_SIZE":"LARGE","OBJECT_NAME":"STARLINK-4281","PERIAPSIS":"539.049","MEAN_MOTION":"15.08843641","TLE_LINE1":"1 53017U 22076AH  23161.67578144  .00000005  00000-0  18417-4 0  9998","RA_OF_ASC_NODE":"266.8233","ELEMENT_SET_NO":"999","SEMIMAJOR_AXIS":"6917.869","COUNTRY_CODE":"US","MEAN_MOTION_DOT":"0.00000005","APOAPSIS":"540.420","EPHEMERIS_TYPE":"0","MEAN_ANOMALY":"269.2924","ARG_OF_PERICENTER":"90.8181","PERIOD":"95.437","ECCENTRICITY":"0.00009910","FILE":"3929969","SITE":"AFETR","LAUNCH_DATE":"2022-07-07","MEAN_ELEMENT_THEORY":"SGP4","OBJECT_TYPE":"PAYLOAD","NORAD_CAT_ID":"53017","REF_FRAME":"TEME","TIME_SYSTEM":"UTC","REV_AT_EPOCH":"5157","DECAY_DATE":null,"CENTER_NAME":"EARTH","GP_ID":"233655019"},{"SITE":"AFETR","FILE":"3929709","OBJECT_TYPE":"PAYLOAD","LAUNCH_DATE":"2022-07-07","MEAN_ELEMENT_THEORY":"SGP4","ECCENTRICITY":"0.00008430","PERIOD":"95.438","MEAN_ANOMALY":"261.4584","ARG_OF_PERICENTER":"98.6503","EPHEMERIS_TYPE":"0","DECAY_DATE":null,"CENTER_NAME":"EARTH","GP_ID":"233620952","REV_AT_EPOCH":"5154","TIME_SYSTEM":"UTC","REF_FRAME":"TEME","NORAD_CAT_ID":"53018","RCS_SIZE":"LARGE","MEAN_MOTION":"15.08840411","PERIAPSIS":"539.161","OBJECT_NAME":"STARLINK-4279","MEAN_MOTION_DDOT":"0.0000000000000","BSTAR":"0.00007351000000","CLASSIFICATION_TYPE":"U","EPOCH":"2023-06-10T13:55:23.295072","INCLINATION":"53.2175","TLE_LINE2":"2 53018  53.2175 267.5126 0000843  98.6503 261.4584 15.08840411 51544","OBJECT_ID":"2022-076AJ","MEAN_MOTION_DOT":"0.00000882","COUNTRY_CODE":"US","APOAPSIS":"540.327","ELEMENT_SET_NO":"999","SEMIMAJOR_AXIS":"6917.879","RA_OF_ASC_NODE":"267.5126","TLE_LINE1":"1 53018U 22076AJ  23161.58013073  .00000882  00000-0  73510-4 0  9992"}];
